STARLINK-30324          
1 57640U 23122J   26176.37801970  .00000458  00000+0  26163-4 0  9997
2 57640  42.9992 204.5779 0001225 276.8636  83.2077 15.27580873158660
STARLINK-30312          
1 57641U 23122K   26176.52406991  .00000407  00000+0  24332-4 0  9999
2 57641  43.0037 203.1005 0001534 275.5015  84.5662 15.27576676158705
STARLINK-30263          
1 57642U 23122L   26176.53433288  .00001902  00000+0  78638-4 0  9999
2 57642  43.0121 203.1772 0003922 266.5012  93.5391 15.27583285158704
STARLINK-30280          
1 57643U 23122M   26176.54205795  .00001610  00000+0  68029-4 0  9990
2 57643  43.0042 203.2373 0001764 273.1418  86.9231 15.27578377158706
STARLINK-30247          
1 57644U 23122N   26177.25741859  .00006566  00000+0  24758-3 0  9991
2 57644  43.0038 199.1530 0001467 213.3377 146.7383 15.27627572158817
STARLINK-30277          
1 57645U 23122P   26176.75074397  .00000152  00000+0  15060-4 0  9994
2 57645  43.0036  60.1285 0001971 280.3011  79.7618 15.27579260160403
STARLINK-30265          
1 57646U 23122Q   26176.52793379 -.00004086  00000+0 -13909-3 0  9999
2 57646  43.0058 203.1325 0002102 274.7714  85.2898 15.27566148158709
STARLINK-30286          
1 57647U 23122R   26176.54590788  .00001156  00000+0  51515-4 0  9990
2 57647  43.0021 203.2626 0001452 268.4081  91.6604 15.27584893158702
STARLINK-30243          
1 57648U 23122S   26176.36774314  .00000232  00000+0  17969-4 0  9999
2 57648  42.9992 204.5002 0001326 269.8088  90.2612 15.27578426158677
STARLINK-30299          
1 57650U 23122U   26176.54976189  .00001509  00000+0  64357-4 0  9997
2 57650  43.0020 203.2902 0001648 278.6245  81.4420 15.27587079158706
STARLINK-30294          
1 57651U 23122V   26176.46774944  .00002169  00000+0  88338-4 0  9992
2 57651  43.0002 192.5163 0001319 279.1303  80.9400 15.27570123158829
STARLINK-30276          
1 57652U 23122W   26176.49466010  .00000617  00000+0  31944-4 0  9995
2 57652  43.0012 203.7328 0001276 271.2448  88.8257 15.27578859158690
STARLINK-30289          
1 57653U 23122X   26177.30633891  .00001597  00000+0  67553-4 0  9993
2 57653  43.0018 188.4375 0001461 265.1422  94.9263 15.27585733158939
GAOFEN-12 04            
1 57654U 23123A   26177.26346038  .00000484  00000+0  71174-4 0  9992
2 57654  97.9116  95.1502 0003988  89.1022 271.0647 14.79741898153974
STARLINK-30267          
1 57663U 23124A   26176.97518773  .00001012  00000+0  46265-4 0  9998
2 57663  53.1608  64.0519 0001167  85.9618 274.1516 15.30207189160143
STARLINK-30298          
1 57665U 23124C   26176.95465683  .00009116  00000+0  28046-3 0  9998
2 57665  53.1601  63.9413 0000874  65.2988 294.8106 15.34416208160146
STARLINK-30301          
1 57666U 23124D   26177.08388262  .00020294  00000+0  62317-3 0  9990
2 57666  53.1574 124.0525 0003032  64.3983 295.7332 15.33726654159285
STARLINK-30275          
1 57667U 23124E   26176.97566153  .00001792  00000+0  64152-4 0  9997
2 57667  53.1620  63.8684 0001019 100.3560 259.7558 15.34406100160148
STARLINK-30278          
1 57668U 23124F   26176.92568686  .00000328  00000+0  23198-4 0  9995
2 57668  53.1622  64.2955 0001484  93.1884 266.9286 15.30193388160135
STARLINK-30271          
1 57669U 23124G   26176.94375918  .00000167  00000+0  17151-4 0  9995
2 57669  53.1602  63.5641 0001592  96.0475 264.0708 15.31706456160142
STARLINK-30322          
1 57670U 23124H   26177.25002315  .00025762  00000+0  78053-3 0  9995
2 57670  53.1589  62.6698 0001051  80.6056 317.4905 15.34010619  5865
STARLINK-30296          
1 57671U 23124J   26177.23784845  .00267508  00000+0  82567-2 0  9999
2 57671  53.1603  62.8003 0001469  60.4687 299.6461 15.31973698160181
STARLINK-30274          
1 57672U 23124K   26176.95250316  .00054010  00000+0  16123-2 0  9996
2 57672  53.1614  63.9704 0001268 103.6256 256.4888 15.34121934160144
STARLINK-30316          
1 57673U 23124L   26176.96095441  .00000234  00000+0  18045-4 0  9990
2 57673  53.1611  63.9208 0000955  95.2671 264.8441 15.34401862160149
STARLINK-30313          
1 57676U 23124P   26176.96570070  .00001363  00000+0  58118-4 0  9998
2 57676  53.1603  64.0523 0001156  83.0377 277.0755 15.30205145160143
STARLINK-30303          
1 57677U 23124Q   26176.92246109 -.00002427  00000+0 -69952-4 0  9990
2 57677  53.1612  63.7455 0001414  83.2100 276.9061 15.30156342160149
STARLINK-30320          
1 57678U 23124R   26176.91833158  .00000900  00000+0  37767-4 0  9997
2 57678  53.1591  50.2735 0001108  95.0835 265.0294 15.34397515160335
STARLINK-30321          
1 57679U 23124S   26176.99829704  .00000560  00000+0  31041-4 0  9999
2 57679  53.1600  63.5111 0001258 106.1559 253.9581 15.30201178160155
STARLINK-30283          
1 57680U 23124T   26176.97200929  .00002621  00000+0  10053-3 0  9990
2 57680  53.1604  64.0261 0001094  75.1142 284.9980 15.30219033160149
STARLINK-30273          
1 57681U 23124U   26176.94843061  .00006582  00000+0  22358-3 0  9999
2 57681  53.1590  63.6035 0001604  87.1056 273.0129 15.31715168160147
