OBJECT_NAME,OBJECT_ID,EPOCH,MEAN_MOTION,ECCENTRICITY,INCLINATION,RA_OF_ASC_NODE,ARG_OF_PERICENTER,MEAN_ANOMALY,EPHEMERIS_TYPE,CLASSIFICATION_TYPE,NORAD_CAT_ID,ELEMENT_SET_NO,REV_AT_EPOCH,BSTAR,MEAN_MOTION_DOT,MEAN_MOTION_DDOT
STARLINK-30324,2023-122J,2026-06-25T09:04:20.902080,15.27580873,.0001225,42.9992,204.5779,276.8636,83.2077,0,U,57640,999,15866,.26163E-4,.458E-5,0
STARLINK-30312,2023-122K,2026-06-25T12:34:39.640224,15.27576676,.00015341,43.0037,203.1005,275.5015,84.5662,0,U,57641,999,15870,.24332055E-4,.407E-5,0
STARLINK-30263,2023-122L,2026-06-25T12:49:26.360832,15.27583285,.00039227,43.0121,203.1772,266.5012,93.5391,0,U,57642,999,15870,.78637608E-4,.1902E-4,0
STARLINK-30280,2023-122M,2026-06-25T13:00:33.806880,15.27578377,.0001764,43.0042,203.2373,273.1418,86.9231,0,U,57643,999,15870,.6802909E-4,.161E-4,0
STARLINK-30247,2023-122N,2026-06-26T06:10:40.966176,15.27627572,.00014675,43.0038,199.1530,213.3377,146.7383,0,U,57644,999,15881,.24757825E-3,.6566E-4,0
STARLINK-30277,2023-122P,2026-06-25T18:01:04.279008,15.27579260,.00019714,43.0036,60.1285,280.3011,79.7618,0,U,57645,999,16040,.15060286E-4,.152E-5,0
STARLINK-30265,2023-122Q,2026-06-25T12:40:13.479456,15.27566148,.00021026,43.0058,203.1325,274.7714,85.2898,0,U,57646,999,15870,-.13908973E-3,-.4086E-4,0
STARLINK-30286,2023-122R,2026-06-25T13:06:06.440832,15.27584893,.00014527,43.0021,203.2626,268.4081,91.6604,0,U,57647,999,15870,.51514552E-4,.1156E-4,0
STARLINK-30243,2023-122S,2026-06-25T08:49:33.007296,15.27578426,.0001326,42.9992,204.5002,269.8088,90.2612,0,U,57648,999,15867,.17969E-4,.232E-5,0
STARLINK-30299,2023-122U,2026-06-25T13:11:39.427296,15.27587079,.00016485,43.0020,203.2902,278.6245,81.4420,0,U,57650,999,15870,.64356715E-4,.1509E-4,0
STARLINK-30294,2023-122V,2026-06-25T11:13:33.551616,15.27570123,.0001319,43.0002,192.5163,279.1303,80.9400,0,U,57651,999,15882,.88338E-4,.2169E-4,0
STARLINK-30276,2023-122W,2026-06-25T11:52:18.632640,15.27578859,.0001276,43.0012,203.7328,271.2448,88.8257,0,U,57652,999,15869,.31944E-4,.617E-5,0
STARLINK-30289,2023-122X,2026-06-26T07:21:07.681824,15.27585733,.00014615,43.0018,188.4375,265.1422,94.9263,0,U,57653,999,15893,.675531E-4,.1597E-4,0
GAOFEN-12 04,2023-123A,2026-06-26T06:19:22.976832,14.79741898,.00039883,97.9116,95.1502,89.1022,271.0647,0,U,57654,999,15397,.71174425E-4,.484E-5,0
STARLINK-30267,2023-124A,2026-06-25T23:24:16.219872,15.30207189,.00011679,53.1608,64.0519,85.9618,274.1516,0,U,57663,999,16014,.46264714E-4,.1012E-4,0
STARLINK-30298,2023-124C,2026-06-25T22:54:42.350112,15.34416208,.00008743,53.1601,63.9413,65.2988,294.8106,0,U,57665,999,16014,.28046183E-3,.9116E-4,0
STARLINK-30301,2023-124D,2026-06-26T02:00:47.458368,15.33726654,.00030321,53.1574,124.0525,64.3983,295.7332,0,U,57666,999,15928,.62317086E-3,.20294E-3,0
STARLINK-30275,2023-124E,2026-06-25T23:24:57.156192,15.34406100,.0001019,53.1620,63.8684,100.3560,259.7558,0,U,57667,999,16014,.64151864E-4,.1792E-4,0
STARLINK-30278,2023-124F,2026-06-25T22:12:59.344704,15.30193388,.00014843,53.1622,64.2955,93.1884,266.9286,0,U,57668,999,16013,.23198369E-4,.328E-5,0
STARLINK-30271,2023-124G,2026-06-25T22:39:00.793152,15.31706456,.00015927,53.1602,63.5641,96.0475,264.0708,0,U,57669,999,16014,.17151085E-4,.167E-5,0
STARLINK-30322,2023-124H,2026-06-26T06:00:02.000160,15.34010619,.0001051,53.1589,62.6698,80.6056,317.4905,0,U,57670,999,586,.78052865E-3,.25762E-3,0
STARLINK-30296,2023-124J,2026-06-26T05:42:30.106080,15.31973698,.00014695,53.1603,62.8003,60.4687,299.6461,0,U,57671,999,16018,.82567139E-2,.267508E-2,0
STARLINK-30274,2023-124K,2026-06-25T22:51:36.273024,15.34121934,.00012689,53.1614,63.9704,103.6256,256.4888,0,U,57672,999,16014,.16123058E-2,.5401E-3,0
STARLINK-30316,2023-124L,2026-06-25T23:03:46.461024,15.34401862,.00009559,53.1611,63.9208,95.2671,264.8441,0,U,57673,999,16014,.18044605E-4,.234E-5,0
STARLINK-30313,2023-124P,2026-06-25T23:10:36.540480,15.30205145,.00011565,53.1603,64.0523,83.0377,277.0755,0,U,57676,999,16014,.58117828E-4,.1363E-4,0
STARLINK-30303,2023-124Q,2026-06-25T22:08:20.638176,15.30156342,.00014144,53.1612,63.7455,83.2100,276.9061,0,U,57677,999,16014,-.699519E-4,-.2427E-4,0
STARLINK-30320,2023-124R,2026-06-25T22:02:23.848512,15.34397515,.00011089,53.1591,50.2735,95.0835,265.0294,0,U,57678,999,16033,.37767309E-4,.9E-5,0
STARLINK-30321,2023-124S,2026-06-25T23:57:32.864256,15.30201178,.00012589,53.1600,63.5111,106.1559,253.9581,0,U,57679,999,16015,.31041352E-4,.56E-5,0
STARLINK-30283,2023-124T,2026-06-25T23:19:41.602656,15.30219033,.00010949,53.1604,64.0261,75.1142,284.9980,0,U,57680,999,16014,.10053498E-3,.2621E-4,0
STARLINK-30273,2023-124U,2026-06-25T22:45:44.404704,15.31715168,.00016047,53.1590,63.6035,87.1056,273.0129,0,U,57681,999,16014,.22358218E-3,.6582E-4,0
